Restaurant,City,State,Zip Code,
Aussie Grill by Outback,Brandon,FL,33511,
Aussie Grill by Outback,Clearwater,FL,33765,
Aussie Grill by Outback,Tampa,FL,33607,
Aussie Grill by Outback,Tampa,FL,33607,
Aussie Grill by Outback,Lutz,FL,33559,
Aussie Grill by Outback,Brandon,FL,33511,
Bonefish Grill,Hoover,AL,35244,
Bonefish Grill,Huntsville,AL,35802,
Bonefish Grill,Mobile,AL,36608,
Bonefish Grill,Montgomery,AL,36117,
Bonefish Grill,Little Rock,AR,72212,
Bonefish Grill,Rogers,AR,72758,
Bonefish Grill,Colorado Springs,CO,80918,
Bonefish Grill,Denver,CO,80123,
Bonefish Grill,Greenwood,CO,80111,
Bonefish Grill,Johnstown,CO,80534,
Bonefish Grill,Lakewood,CO,80401,
Bonefish Grill,Westminster,CO,80021,
Bonefish Grill,Wilmington,DE,19803,
Bonefish Grill,Aventura,FL,33180,
Bonefish Grill,Belleair Bluffs,FL,33770,
Bonefish Grill,Boca Raton,FL,33434,
Bonefish Grill,Bonita Springs,FL,34134,
Bonefish Grill,Boynton Beach,FL,33426,
Bonefish Grill,Bradenton,FL,34210,
Bonefish Grill,Brandon,FL,33511,
Bonefish Grill,Brooksville,FL,34613,
Bonefish Grill,Cape Coral,FL,33991,
Bonefish Grill,Clearwater,FL,33761,
Bonefish Grill,Coral Springs,FL,33071,
Bonefish Grill,Daytona Beach,FL,32114,
Bonefish Grill,Destin,FL,32541,
Bonefish Grill,Ft. Lauderdale,FL,33308,
Bonefish Grill,Ft. Myers,FL,33912,
Bonefish Grill,Gainesville,FL,32608,
Bonefish Grill,Jacksonville,FL,32223,
Bonefish Grill,Jacksonville Beach,FL,32250,
Bonefish Grill,Kissimmee,FL,34741,
Bonefish Grill,Kissimmee,FL,34747,
Bonefish Grill,Lake Worth,FL,33467,
Bonefish Grill,Lakeland,FL,33813,
Bonefish Grill,Longwood,FL,32750,
Bonefish Grill,Lutz,FL,33559,
Bonefish Grill,Merritt Island,FL,32952,
Bonefish Grill,Miami,FL,33186,
Bonefish Grill,Miami,FL,33184,
Bonefish Grill,Naples,FL,34102,
Bonefish Grill,Ocala,FL,34474,
Bonefish Grill,Orlando,FL,32828,
Bonefish Grill,Orlando,FL,32812,
Bonefish Grill,Orlando,FL,32821,
Bonefish Grill,Palm Beach Gardens,FL,33418,
Bonefish Grill,Pensacola,FL,32504,
Bonefish Grill,Plantation,FL,33322,
Bonefish Grill,Sarasota,FL,34231,
Bonefish Grill,Sarasota,FL,34201,
Bonefish Grill,St. Petersburg,FL,33710,
Bonefish Grill,Stuart,FL,34994,
Bonefish Grill,Tallahassee,FL,32309,
Bonefish Grill,Tampa,FL,33618,
Bonefish Grill,Tampa,FL,33609,
Bonefish Grill,The Villages,FL,32162,
Bonefish Grill,Trinity,FL,34655,
Bonefish Grill,Venice,FL,34293,
Bonefish Grill,Vero Beach,FL,32960,
Bonefish Grill,Viera,FL,32940,
Bonefish Grill,Weston,FL,33331,
Bonefish Grill,Winter Garden,FL,34787,
Bonefish Grill,St. Petersburg,FL,33703,
Bonefish Grill,Alpharetta,GA,30005,
Bonefish Grill,Atlanta,GA,30339,
Bonefish Grill,Augusta,GA,30909,
Bonefish Grill,Buford,GA,30519,
Bonefish Grill,Columbus,GA,31909,
Bonefish Grill,Macon,GA,31210,
Bonefish Grill,Savannah,GA,31405,
Bonefish Grill,Snellville,GA,30078,
Bonefish Grill,Boise,ID,83702,
Bonefish Grill,Algonquin,IL,60102,
Bonefish Grill,Orland Park,IL,60462,
Bonefish Grill,Schaumburg,IL,60193,
Bonefish Grill,Skokie,IL,60077,
Bonefish Grill,Evansville,IN,47715,
Bonefish Grill,Greenwood,IN,46142,
Bonefish Grill,Indianapolis,IN,46250,
Bonefish Grill,Mishawaka,IN,46545,
Bonefish Grill,Leawood,KS,66224,
Bonefish Grill,Wichita,KS,67206,
Bonefish Grill,Crescent Springs,KY,41017,
Bonefish Grill,Lexington,KY,40509,
Bonefish Grill,Louisville,KY,40222,
Bonefish Grill,Metairie,LA,70006,
Bonefish Grill,Lafayette,LA,70508,
Bonefish Grill,Baton Rouge,LA,70809,
Bonefish Grill,Towson,MD,21288,
Bonefish Grill,Owings Mills,MD,21117,
Bonefish Grill,Glen Burnie,MD,21061,
Bonefish Grill,Gambrills,MD,21054,
Bonefish Grill,Gaithersburg,MD,20878,
Bonefish Grill,Frederick,MD,21702,
Bonefish Grill,Brandywine,MD,20613,
Bonefish Grill,Bel Air,MD,21014,
Bonefish Grill,Grand Rapids,MI,49546,
Bonefish Grill,Novi,MI,48375,
Bonefish Grill,Troy,MI,48084,
Bonefish Grill,Madison,MS,39110,
Bonefish Grill,Kansas City,MO,64151,
Bonefish Grill,Brentwood,MO,63144,
Bonefish Grill,Omaha,NE,68114,
Bonefish Grill,Las Vegas,NV,89119,
Bonefish Grill,Las Vegas,NV,89117,
Bonefish Grill,Brick,NJ,8724,
Bonefish Grill,Deptford,NJ,8096,
Bonefish Grill,E. Brunswick,NJ,8816,
Bonefish Grill,Egg Harbor Township,NJ,8234,
Bonefish Grill,Iselin,NJ,8830,
Bonefish Grill,Lawrenceville,NJ,8648,
Bonefish Grill,Manalapan,NJ,7726,
Bonefish Grill,Marlton,NJ,8053,
Bonefish Grill,Paramus,NJ,7652,
Bonefish Grill,Pine Brook,NJ,7058,
Bonefish Grill,Secaucus,NJ,7094,
Bonefish Grill,Fayetteville,NY,13066,
Bonefish Grill,Rockville Centre,NY,11570,
Bonefish Grill,Cary,NC,27513,
Bonefish Grill,Charlotte,NC,28226,
Bonefish Grill,Concord Mills,NC,28027,
Bonefish Grill,Durham,NC,27713,
Bonefish Grill,Fayetteville,NC,28314,
Bonefish Grill,Greensboro,NC,27407,
Bonefish Grill,Huntersville,NC,28078,
Bonefish Grill,Matthews,NC,28105,
Bonefish Grill,Raleigh,NC,27609,
Bonefish Grill,Southern Pines,NC,28387,
Bonefish Grill,Wilmington,NC,28405,
Bonefish Grill,Cincinnati,OH,45209,
Bonefish Grill,Columbus,OH,43240,
Bonefish Grill,Dayton,OH,43240,
Bonefish Grill,Dublin,OH,43016,
Bonefish Grill,Independence,OH,44131,
Bonefish Grill,North Canton,OH,44720,
Bonefish Grill,West Chester,OH,45069,
Bonefish Grill,Westlake,OH,44145,
Bonefish Grill,Broken Arrow,OK,74012,
Bonefish Grill,Willow Grove,PA,19090,
Bonefish Grill,Whitehall,PA,18052,
Bonefish Grill,Upper St. Clair,PA,15241,
Bonefish Grill,North Wales,PA,19454,
Bonefish Grill,Newtown Square,PA,19073,
Bonefish Grill,McCandless,PA,15237,
Bonefish Grill,Langhorne,PA,19047,
Bonefish Grill,Lancaster,PA,17601,
Bonefish Grill,King Of Prussia,PA,19406,
Bonefish Grill,Exton,PA,19341,
Bonefish Grill,Camp Hill,PA,17011,
Bonefish Grill,Surfside Beach,SC,29575,
Bonefish Grill,North Charleston,SC,29418,
Bonefish Grill,N. Myrtle Beach,SC,29582,
Bonefish Grill,Myrtle Beach,SC,29572,
Bonefish Grill,Greenville,SC,29607,
Bonefish Grill,Columbia,SC,29212,
Bonefish Grill,Columbia,SC,29206,
Bonefish Grill,Murfreesboro,TN,37129,
Bonefish Grill,Knoxville,TN,37934,
Bonefish Grill,Knoxville,TN,37919,
Bonefish Grill,Johnson City,TN,37601,
Bonefish Grill,Franklin,TN,37067,
Bonefish Grill,Cordova,TN,38016,
Bonefish Grill,Collierville,TN,38017,
Bonefish Grill,Chattanooga,TN,37421,
Bonefish Grill,Allen,TX,75002,
Bonefish Grill,Southlake,TX,76092,
Bonefish Grill,Williamsburg,VA,23188,
Bonefish Grill,Virginia Beach,VA,23452,
Bonefish Grill,Newport News,VA,23602,
Bonefish Grill,Midlothian,VA,23112,
Bonefish Grill,Glen Allen,VA,23060,
Bonefish Grill,Gainesville,VA,20155,
Bonefish Grill,Fredericksburg,VA,22401,
Bonefish Grill,Fairfax,VA,22033,
Bonefish Grill,Charlottesville,VA,22911,
Bonefish Grill,Centreville,VA,20121,
Bonefish Grill,Ashburn,VA,20148,
Bonefish Grill,Arlington,VA,22202,
Bonefish Grill,Alexandria,VA,22315,
Bonefish Grill,Spokane,WA,99207,
Bonefish Grill,Richland,WA,99352,
Bonefish Grill,Marysville,WA,98271,
Bonefish Grill,Bothell,WA,98021,
Bonefish Grill,Madison,WI,53711,
Outback,Birmingham, AL,35242,
Outback,Dothan, AL,36301,
Outback,Florence, AL,35630,
Outback,Fultondale, AL,35068,
Outback,Birmingham, AL,35244,
Outback,Huntsville, AL,35802,
Outback,Mobile, AL,36608,
Outback,Montgomery, AL,36117,
Outback,Opelika, AL,36801,
Outback,Prattville, AL,36066,
Outback,Tuscaloosa, AL,35405,
Outback,Chandler, AZ,85226,
Outback,Flagstaff, AZ,86004,
Outback,Gilbert, AZ,85295,
Outback,Glendale, AZ,85308,
Outback,Surprise, AZ,85374,
Outback,Tempe, AZ,85282,
Outback,Conway, AR,72032,
Outback,Fort Smith, AR,72903,
Outback,Hot Springs National Park, AR,71913,
Outback,Jonesboro, AR,72401,
Outback,Little Rock, AR,72211,
Outback,North Little Rock, AR,72116,
Outback,Rogers, AR,72758,
Outback,Springdale, AR,72764,
Outback,Arcadia, CA,91006,
Outback,Bakersfield, CA,93309,
Outback,Brea, CA,92821,
Outback,Buena Park, CA,90620,
Outback,Burbank, CA,91502,
Outback,Costa Mesa, CA,92627,
Outback,Covina, CA,91723,
Outback,Daly City, CA,94015,
Outback,Dublin, CA,94568,
Outback,El Cajon, CA,92019,
Outback,Elk Grove, CA,95758,
Outback,Foothill Ranch, CA,92610,
Outback,Fresno, CA,93711,
Outback,Garden Grove, CA,92840,
Outback,Laguna Hills, CA,92653,
Outback,Lakewood, CA,90712,
Outback,Long Beach, CA,90802,
Outback,Milpitas, CA,95035,
Outback,Modesto, CA,95350,
Outback,National City, CA,91950,
Outback,Stevenson Ranch, CA,91381,
Outback,Northridge, CA,91324,
Outback,Norwalk, CA,90650,
Outback,Oceanside, CA,92054,
Outback,Ontario, CA,91764,
Outback,Oxnard, CA,93036,
Outback,Palm Desert, CA,92260,
Outback,Palmdale, CA,93551,
Outback,Pinole, CA,94564,
Outback,Pittsburg, CA,94565,
Outback,Pleasant Hill, CA,94523,
Outback,Poway, CA,92064,
Outback,Redding, CA,96003,
Outback,Roseville, CA,95661,
Outback,Sacramento, CA,95825,
Outback,San Bernardino, CA,92408,
Outback,San Marcos, CA,92069,
Outback,Temecula, CA,92591,
Outback,Torrance, CA,90503,
Outback,Upland, CA,91786,
Outback,Vacaville, CA,95688,
Outback,Victorville, CA,92392,
Outback,Visalia, CA,93277,
Outback,Westminster, CA,92683,
Outback,Aurora, CO,80014,
Outback,Castle Rock, CO,80104,
Outback,Denver, CO,80239,
Outback,Englewood, CO,80112,
Outback,Golden, CO,80401,
Outback,Grand Junction, CO,81505,
Outback,Littleton, CO,80129,
Outback,Littleton, CO,80123,
Outback,Denver, CO,80233,
Outback,Westminster, CO,80030,
Outback,Enfield, CT,6082,
Outback,Newington, CT,6111,
Outback,North Haven, CT,6473,
Outback,Orange, CT,6477,
Outback,Shelton, CT,6484,
Outback,Southington, CT,6489,
Outback,Wilton, CT,6897,
Outback,Dover, DE,19901,
Outback,Newark, DE,19711,
Outback,Rehoboth Beach, DE,19971,
Outback,Altamonte Springs, FL,32714,
Outback,Bonita Springs, FL,34135,
Outback,Brandon, FL,33511,
Outback,Cape Coral, FL,33909,
Outback,Clermont, FL,34711,
Outback,Coral Springs, FL,33071,
Outback,Dania, FL,33004,
Outback,Daytona Beach, FL,32114,
Outback,Deerfield Beach, FL,33442,
Outback,Delray Beach, FL,33444,
Outback,Destin, FL,32541,
Outback,Fort Lauderdale, FL,33316,
Outback,Gainesville, FL,32608,
Outback,Hialeah, FL,33012,
Outback,Homestead, FL,33033,
Outback,Inverness, FL,34453,
Outback,Jacksonville Beach, FL,32250,
Outback,Key West, FL,33040,
Outback,Lake Worth, FL,33463,
Outback,Largo, FL,33771,
Outback,Leesburg, FL,34788,
Outback,Pompano Beach, FL,33064,
Outback,Lithia, FL,33547,
Outback,Merritt Island, FL,32952,
Outback,Hialeah, FL,33016,
Outback,Naples, FL,34103,
Outback,New Port Richey, FL,34655,
Outback,North Miami Beach, FL,33160,
Outback,Orange Park, FL,32073,
Outback,Ormond Beach, FL,32176,
Outback,Oviedo, FL,32765,
Outback,Palm Beach Gardens, FL,33410,
Outback,Palm Coast, FL,32137,
Outback,Palm Harbor, FL,34684,
Outback,Panama City, FL,32405,
Outback,Hollywood, FL,33026,
Outback,Pensacola, FL,32504,
Outback,Plant City, FL,33563,
Outback,Port Charlotte, FL,33948,
Outback,Port Saint Lucie, FL,34986,
Outback,West Palm Beach, FL,33411,
Outback,Sanford, FL,32771,
Outback,Sebring, FL,33870,
Outback,Seminole, FL,33772,
Outback,Naples, FL,34113,
Outback,Spring Hill, FL,34606,
Outback,Saint Augustine, FL,32086,
Outback,Saint Petersburg, FL,33704,
Outback,Stuart, FL,34994,
Outback,Fort Lauderdale, FL,33323,
Outback,Tallahassee, FL,32308,
Outback,Tampa, FL,33617,
Outback,Lady Lake, FL,32159,
Outback,Venice, FL,34293,
Outback,Vero Beach, FL,32966,
Outback,Wesley Chapel, FL,33544,
Outback,Winter Haven, FL,33880,
Outback,Winter Park, FL,32792,
Outback,Winter Springs, FL,32708,
Outback,Albany, GA,31707,
Outback,Alpharetta, GA,30022,
Outback,Athens, GA,30606,
Outback,Atlanta, GA,30329,
Outback,Augusta, GA,30909,
Outback,Canton, GA,30114,
Outback,Columbus, GA,31909,
Outback,Commerce, GA,30529,
Outback,Conyers, GA,30012,
Outback,Cumming, GA,30041,
Outback,Dalton, GA,30720,
Outback,Douglasville, GA,30135,
Outback,Gainesville, GA,30501,
Outback,Kennesaw, GA,30144,
Outback,Macon, GA,31210,
Outback,Peachtree City, GA,30269,
Outback,Rome, GA,30161,
Outback,Roswell, GA,30075,
Outback,Savannah, GA,31419,
Outback,Snellville, GA,30078,
Outback,Stockbridge, GA,30281,
Outback,Suwanee, GA,30024,
Outback,Valdosta, GA,31601,
Outback,Warner Robins, GA,31093,
Outback,Honolulu, HI,96825,
Outback,Kailua Kona, HI,96740,
Outback,Kapolei, HI,96707,
Outback,Kihei, HI,96753,
Outback,Waipahu, HI,96797,
Outback,Boise, ID,83709,
Outback,Idaho Falls, ID,83402,
Outback,Nampa, ID,83651,
Outback,Twin Falls, ID,83301,
Outback,Bloomingdale, IL,60108,
Outback,Bloomington, IL,61701,
Outback,Calumet City, IL,60409,
Outback,Champaign, IL,61822,
Outback,Crystal Lake, IL,60014,
Outback,Downers Grove, IL,60515,
Outback,Gurnee, IL,60031,
Outback,Joliet, IL,60431,
Outback,Mount Prospect, IL,60056,
Outback,Naperville, IL,60540,
Outback,Orland Park, IL,60462,
Outback,Rockford, IL,61108,
Outback,Schaumburg, IL,60173,
Outback,Skokie, IL,60077,
Outback,South Elgin, IL,60177,
Outback,Springfield, IL,62704,
Outback,Bloomington, IN,47404,
Outback,Carmel, IN,46032,
Outback,Clarksville, IN,47129,
Outback,Evansville, IN,47715,
Outback,Fort Wayne, IN,46804,
Outback,Kokomo, IN,46902,
Outback,Lafayette, IN,47905,
Outback,Merrillville, IN,46410,
Outback,Mishawaka, IN,46545,
Outback,Muncie, IN,47303,
Outback,Terre Haute, IN,47802,
Outback,Ankeny, IA,50021,
Outback,Cedar Rapids, IA,52402,
Outback,Clive, IA,50325,
Outback,Sioux City, IA,51106,
Outback,Lenexa, KS,66215,
Outback,Ashland, KY,41101,
Outback,Bowling Green, KY,42104,
Outback,Erlanger, KY,41018,
Outback,Florence, KY,41042,
Outback,Paducah, KY,42001,
Outback,Richmond, KY,40475,
Outback,Alexandria, LA,71301,
Outback,Bossier City, LA,71112,
Outback,Covington, LA,70433,
Outback,Gonzales, LA,70737,
Outback,Houma, LA,70360,
Outback,Lafayette, LA,70508,
Outback,Lake Charles, LA,70607,
Outback,Marrero, LA,70072,
Outback,Metairie, LA,70002,
Outback,Shreveport, LA,71106,
Outback,Slidell, LA,70461,
Outback,West Monroe, LA,71292,
Outback,Annapolis, MD,21401,
Outback,Bel Air, MD,21014,
Outback,California, MD,20619,
Outback,Ellicott City, MD,21043,
Outback,Frederick, MD,21702,
Outback,Gambrills, MD,21054,
Outback,Germantown, MD,20874,
Outback,Glen Burnie, MD,21061,
Outback,Hagerstown, MD,21740,
Outback,Cockeysville, MD,21030,
Outback,Hyattsville, MD,20782,
Outback,La Plata, MD,20646,
Outback,Upper Marlboro, MD,20774,
Outback,Laurel, MD,20707,
Outback,Ocean City, MD,21842,
Outback,Owings Mills, MD,21117,
Outback,Oxon Hill, MD,20745,
Outback,Prince Frederick, MD,20678,
Outback,Salisbury, MD,21804,
Outback,Silver Spring, MD,20906,
Outback,Waldorf, MD,20601,
Outback,Auburn, MA,1501,
Outback,Bellingham, MA,2019,
Outback,Leominster, MA,1453,
Outback,Lowell, MA,1851,
Outback,Methuen, MA,1844,
Outback,Peabody, MA,1960,
Outback,Randolph, MA,2368,
Outback,Seekonk, MA,2771,
Outback,Somerville, MA,2145,
Outback,West Springfield, MA,1089,
Outback,Ann Arbor, MI,48103,
Outback,Brighton, MI,48114,
Outback,Canton, MI,48187,
Outback,Clarkston, MI,48346,
Outback,Flint, MI,48507,
Outback,Grandville, MI,49418,
Outback,Jackson, MI,49202,
Outback,Grand Rapids, MI,49512,
Outback,Lansing, MI,48917,
Outback,Livonia, MI,48150,
Outback,Madison Heights, MI,48071,
Outback,Novi, MI,48374,
Outback,Okemos, MI,48864,
Outback,Roseville, MI,48066,
Outback,Saginaw, MI,48604,
Outback,Utica, MI,48315,
Outback,Southfield, MI,48075,
Outback,Southgate, MI,48195,
Outback,Traverse City, MI,49684,
Outback,Grand Rapids, MI,49544,
Outback,Minneapolis, MN,55425,
Outback,Burnsville, MN,55337,
Outback,Minneapolis, MN,55433,
Outback,Duluth, MN,55811,
Outback,Inver Grove Heights, MN,55076,
Outback,Saint Paul, MN,55109,
Outback,Rochester, MN,55904,
Outback,Diberville, MS,39540,
Outback,Flowood, MS,39232,
Outback,Hattiesburg, MS,39402,
Outback,Meridian, MS,39301,
Outback,Southaven, MS,38671,
Outback,Tupelo, MS,38804,
Outback,Cape Girardeau, MO,63701,
Outback,Independence, MO,64057,
Outback,Joplin, MO,64804,
Outback,Kansas City, MO,64153,
Outback,O'Fallon, MO,63366,
Outback,Osage Beach, MO,65065,
Outback,Springfield, MO,65804,
Outback,Saint Louis, MO,63126,
Outback,Saint Peters, MO,63376,
Outback,Billings, MT,59102,
Outback,Bozeman, MT,59718,
Outback,Missoula, MT,59808,
Outback,Bellevue, NE,68123,
Outback,Lincoln, NE,68504,
Outback,Henderson, NV,89014,
Outback,Laughlin, NV,89029,
Outback,North Las Vegas, NV,89032,
Outback,Reno, NV,89502,
Outback,Sparks, NV,89434,
Outback,Brick, NJ,8723,
Outback,Butler, NJ,7405,
Outback,Cherry Hill, NJ,8002,
Outback,Woodbury, NJ,8096,
Outback,Edgewater, NJ,7020,
Outback,Edison, NJ,8817,
Outback,Dunellen, NJ,8812,
Outback,Robbinsville, NJ,8691,
Outback,Ledgewood, NJ,7852,
Outback,Marlton, NJ,8053,
Outback,Mays Landing, NJ,8330,
Outback,Middletown, NJ,7748,
Outback,Old Bridge, NJ,8857,
Outback,Parsippany, NJ,7054,
Outback,Rochelle Park, NJ,7662,
Outback,Secaucus, NJ,7094,
Outback,Springfield, NJ,7081,
Outback,Blackwood, NJ,8012,
Outback,Wayne, NJ,7470,
Outback,Farmington, NM,87402,
Outback,Las Cruces, NM,88011,
Outback,Santa Fe, NM,87507,
Outback,Buffalo, NY,14228,
Outback,Bayside, NY,11360,
Outback,Buffalo, NY,14219,
Outback,Bronx, NY,10475,
Outback,Clifton Park, NY,12065,
Outback,Albany, NY,12205,
Outback,Commack, NY,11725,
Outback,East Setauket, NY,11733,
Outback,Holbrook, NY,11741,
Outback,Horseheads, NY,14845,
Outback,Island Park, NY,11558,
Outback,Lindenhurst, NY,11757,
Outback,Liverpool, NY,13090,
Outback,Merrick, NY,11566,
Outback,Middletown, NY,10941,
Outback,Monroe, NY,10950,
Outback,New York, NY,10010,
Outback,Rochester, NY,14626,
Outback,Staten Island, NY,10314,
Outback,Vestal, NY,13850,
Outback,Wappingers Falls, NY,12590,
Outback,Westbury, NY,11590,
Outback,Yonkers, NY,10710,
Outback,Asheville, NC,28805,
Outback,Blowing Rock, NC,28605,
Outback,Burlington, NC,27215,
Outback,Cary, NC,27511,
Outback,Concord, NC,28027,
Outback,Durham, NC,27707,
Outback,Fayetteville, NC,28303,
Outback,Garner, NC,27529,
Outback,Gastonia, NC,28054,
Outback,Goldsboro, NC,27534,
Outback,Greenville, NC,27834,
Outback,Hendersonville, NC,28792,
Outback,Hickory, NC,28602,
Outback,High Point, NC,27262,
Outback,Huntersville, NC,28078,
Outback,Jacksonville, NC,28546,
Outback,Lumberton, NC,28358,
Outback,Matthews, NC,28105,
Outback,Mooresville, NC,28177,
Outback,Nags Head, NC,27959,
Outback,New Bern, NC,28562,
Outback,Rocky Mount, NC,27804,
Outback,Salisbury, NC,28144,
Outback,Smithfield, NC,27577,
Outback,Southern Pines, NC,28387,
Outback,Statesville, NC,28625,
Outback,Wilmington, NC,28403,
Outback,Winston Salem, NC,27103,
Outback,Akron, OH,44321,
Outback,Youngstown, OH,44514,
Outback,North Canton, OH,44720,
Outback,Cuyahoga Falls, OH,44221,
Outback,Findlay, OH,45840,
Outback,Independence, OH,44131,
Outback,Macedonia, OH,44056,
Outback,Mansfield, OH,44906,
Outback,Mason, OH,45040,
Outback,Maumee, OH,43537,
Outback,Mentor, OH,44060,
Outback,Niles, OH,44446,
Outback,Cleveland, OH,44129,
Outback,Sandusky, OH,44870,
Outback,Saint Clairsville, OH,43950,
Outback,Strongsville, OH,44136,
Outback,Toledo, OH,43623,
Outback,Troy, OH,45373,
Outback,Westlake, OH,44145,
Outback,Lawton, OK,73505,
Outback,Norman, OK,73072,
Outback,Salem, OR,97303,
Outback,Medford, OR,97504,
Outback,Portland, OR,97225,
Outback,Springfield, OR,97477,
Outback,Tualatin, OR,97062,
Outback,Allentown, PA,18106,
Outback,Altoona, PA,16601,
Outback,Bensalem, PA,19020,
Outback,Bethlehem, PA,18020,
Outback,Camp Hill, PA,17011,
Outback,Glen Mills, PA,19342,
Outback,Conshohocken, PA,19428,
Outback,Coraopolis, PA,15108,
Outback,Erie, PA,16565,
Outback,Fairless Hills, PA,19030,
Outback,Malvern, PA,19355,
Outback,Harrisburg, PA,17109,
Outback,Jamison, PA,18929,
Outback,Jenkintown, PA,19046,
Outback,King Of Prussia, PA,19406,
Outback,Lancaster, PA,17601,
Outback,Monroeville, PA,15146,
Outback,North Wales, PA,19454,
Outback,Pittsburgh, PA,15237,
Outback,Royersford, PA,19468,
Outback,Springfield, PA,19064,
Outback,State College, PA,16803,
Outback,Washington, PA,15301,
Outback,York, PA,17408,
Outback,Wilkes Barre, PA,18702,
Outback,Reading, PA,19610,
Outback,Aiken, SC,29803,
Outback,Anderson, SC,29621,
Outback,Beaufort, SC,29902,
Outback,Bluffton, SC,29910,
Outback,Charleston, SC,29407,
Outback,Easley, SC,29642,
Outback,Florence, SC,29501,
Outback,Gaffney, SC,29341,
Outback,Greenville, SC,29615,
Outback,Greenwood, SC,29649,
Outback,Mount Pleasant, SC,29464,
Outback,Murrells Inlet, SC,29576,
Outback,Charleston, SC,29406,
Outback,North Myrtle Beach, SC,29582,
Outback,Rock Hill, SC,29732,
Outback,Spartanburg, SC,29301,
Outback,Sumter, SC,29150,
Outback,Rapid City, SD,57701,
Outback,Sioux Falls, SD,57106,
Outback,Brentwood, TN,37027,
Outback,Bristol, TN,37620,
Outback,Clarksville, TN,37040,
Outback,Cleveland, TN,37312,
Outback,Cookeville, TN,38501,
Outback,Cordova, TN,38018,
Outback,Hermitage, TN,37076,
Outback,Jackson, TN,38305,
Outback,Johnson City, TN,37604,
Outback,Lebanon, TN,37090,
Outback,Madison, TN,37115,
Outback,Memphis, TN,38104,
Outback,Murfreesboro, TN,37129,
Outback,Nashville, TN,37209,
Outback,Oak Ridge, TN,37830,
Outback,Sevierville, TN,37862,
Outback,Abilene, TX,79606,
Outback,Addison, TX,75001,
Outback,Amarillo, TX,79106,
Outback,Arlington, TX,76017,
Outback,Austin, TX,78759,
Outback,Baytown, TX,77521,
Outback,Beaumont, TX,77707,
Outback,Burleson, TX,76028,
Outback,College Station, TX,77840,
Outback,Conroe, TX,77301,
Outback,Corpus Christi, TX,78411,
Outback,Dallas, TX,75243,
Outback,Denton, TX,76205,
Outback,Desoto, TX,75115,
Outback,El Paso, TX,79936,
Outback,Euless, TX,76039,
Outback,Frisco, TX,75035,
Outback,Garland, TX,75040,
Outback,Humble, TX,77338,
Outback,Hurst, TX,76053,
Outback,Irving, TX,75062,
Outback,Katy, TX,77494,
Outback,Killeen, TX,76543,
Outback,Lewisville, TX,75067,
Outback,Longview, TX,75605,
Outback,Lubbock, TX,79423,
Outback,Lufkin, TX,75901,
Outback,Mesquite, TX,75150,
Outback,Midland, TX,79705,
Outback,Pasadena, TX,77505,
Outback,Plano, TX,75075,
Outback,Round Rock, TX,78664,
Outback,San Angelo, TX,76901,
Outback,San Marcos, TX,78666,
Outback,Schertz, TX,78154,
Outback,Conroe, TX,77384,
Outback,Stafford, TX,77477,
Outback,Texarkana, TX,75503,
Outback,Tyler, TX,75703,
Outback,Waco, TX,76710,
Outback,Webster, TX,77598,
Outback,Layton, UT,84041,
Outback,Orem, UT,84058,
Outback,Sandy, UT,84094,
Outback,Saint George, UT,84790,
Outback,Alexandria, VA,22306,
Outback,Arlington, VA,22203,
Outback,Charlottesville, VA,22901,
Outback,Chesapeake, VA,23321,
Outback,Christiansburg, VA,24073,
Outback,Clifton, VA,20124,
Outback,Colonial Heights, VA,23834,
Outback,Danville, VA,24540,
Outback,Fairfax, VA,22032,
Outback,Fredericksburg, VA,22401,
Outback,Gainesville, VA,20155,
Outback,Hampton, VA,23666,
Outback,Harrisonburg, VA,22801,
Outback,Herndon, VA,20170,
Outback,Leesburg, VA,20176,
Outback,Lynchburg, VA,24501,
Outback,Mechanicsville, VA,23111,
Outback,Midlothian, VA,23112,
Outback,Newport News, VA,23602,
Outback,Roanoke, VA,24014,
Outback,Springfield, VA,22150,
Outback,Stafford, VA,22556,
Outback,Sterling, VA,20164,
Outback,Warrenton, VA,20187,
Outback,Waynesboro, VA,22980,
Outback,Williamsburg, VA,23185,
Outback,Winchester, VA,22602,
Outback,Woodbridge, VA,22192,
Outback,Bellevue, WA,98006,
Outback,Bothell, WA,98021,
Outback,Burlington, WA,98233,
Outback,Everett, WA,98204,
Outback,Kennewick, WA,99336,
Outback,Marysville, WA,98271,
Outback,Olympia, WA,98502,
Outback,Puyallup, WA,98373,
Outback,Snohomish, WA,98290,
Outback,Spokane, WA,99207,
Outback,Spokane, WA,99216,
Outback,Seattle, WA,98188,
Outback,Yakima, WA,98903,
Outback,Vancouver, WA,98662,
Outback,Barboursville, WV,25504,
Outback,Beckley, WV,25801,
Outback,Bridgeport, WV,26330,
Outback,Charleston, WV,25389,
Outback,Martinsburg, WV,25401,
Outback,Morgantown, WV,26508,
Outback,Vienna, WV,26105,
Outback,Princeton, WV,24740,
Outback,Brookfield, WI,53005,
Outback,Milwaukee, WI,53228,
Outback,Onalaska, WI,54650,
Outback,Cheyenne, WY,82001,
Outback,Evansville, WY,82636,
Carrabas,Birmingham, AL,35242,
Carrabas,Huntsville, AL,35801,
Carrabas,Mobile, AL,36608,
Carrabas,Avondale, AZ,85323,
Carrabas,Chandler, AZ,85226,
Carrabas,Gilbert, AZ,85296,
Carrabas,Glendale, AZ,85308,
Carrabas,Mesa, AZ,85208,
Carrabas,Tucson, AZ,85737,
Carrabas,Chandler, AZ,85225,
Carrabas,Surprise, AZ,85374,
Carrabas,Aurora, CO,80014,
Carrabas,Golden, CO,80401,
Carrabas,Fort Collins, CO,80525,
Carrabas,Broomfield, CO,80021,
Carrabas,Altamonte Springs, FL,32714,
Carrabas,Boca Raton, FL,33433,
Carrabas,Bonita Springs, FL,34135,
Carrabas,Boynton Beach, FL,33426,
Carrabas,Bradenton, FL,34205,
Carrabas,Brandon, FL,33511,
Carrabas,Brooksville, FL,34613,
Carrabas,Cape Coral, FL,33991,
Carrabas,Tampa, FL,33626,
Carrabas,Clearwater, FL,33759,
Carrabas,Clermont, FL,34711,
Carrabas,Coral Springs, FL,33065,
Carrabas,Daytona Beach, FL,32114,
Carrabas,Delray Beach, FL,33483,
Carrabas,Fort Lauderdale, FL,33316,
Carrabas,Gainesville, FL,32608,
Carrabas,Jacksonville Beach, FL,32250,
Carrabas,Kissimmee, FL,34747,
Carrabas,Lakeland, FL,33813,
Carrabas,Lutz, FL,33558,
Carrabas,Melbourne, FL,32940,
Carrabas,Merritt Island, FL,32953,
Carrabas,Miami, FL,33172,
Carrabas,Hialeah, FL,33018,
Carrabas,North Palm Beach, FL,33408,
Carrabas,Ocala, FL,34474,
Carrabas,Palm Bay, FL,32905,
Carrabas,Palm Coast, FL,32164,
Carrabas,Palm Harbor, FL,34684,
Carrabas,Panama City Beach, FL,32407,
Carrabas,Pensacola, FL,32502,
Carrabas,Plant City, FL,33563,
Carrabas,Pompano Beach, FL,33062,
Carrabas,Port Richey, FL,34668,
Carrabas,Port Saint Lucie, FL,34986,
Carrabas,Port Charlotte, FL,33948,
Carrabas,West Palm Beach, FL,33411,
Carrabas,Miramar Beach, FL,32550,
Carrabas,Sanford, FL,32771,
Carrabas,Sarasota, FL,34231,
Carrabas,Saint Augustine, FL,32086,
Carrabas,Stuart, FL,34994,
Carrabas,Tallahassee, FL,32308,
Carrabas,Tampa, FL,33617,
Carrabas,Lady Lake, FL,32159,
Carrabas,Bradenton, FL,34201,
Carrabas,Venice, FL,34293,
Carrabas,Vero Beach, FL,32960,
Carrabas,Winter Haven, FL,33880,
Carrabas,Winter Springs, FL,32708,
Carrabas,Athens, GA,30606,
Carrabas,Atlanta, GA,30339,
Carrabas,Augusta, GA,30909,
Carrabas,Columbus, GA,31909,
Carrabas,Cumming, GA,30041,
Carrabas,Douglasville, GA,30135,
Carrabas,Duluth, GA,30097,
Carrabas,Kennesaw, GA,30144,
Carrabas,Macon, GA,31210,
Carrabas,Morrow, GA,30260,
Carrabas,Peachtree City, GA,30269,
Carrabas,Savannah, GA,31419,
Carrabas,Woodridge, IL,60517,
Carrabas,Mishawaka, IN,46545,
Carrabas,Schererville, IN,46375,
Carrabas,Indianapolis, IN,46237,
Carrabas,Overland Park, KS,66212,
Carrabas,Wichita, KS,67226,
Carrabas,Ft Mitchell, KY,41017,
Carrabas,Lexington, KY,40509,
Carrabas,Louisville, KY,40222,
Carrabas,Baton Rouge, LA,70809,
Carrabas,Lafayette, LA,70508,
Carrabas,Metairie, LA,70006,
Carrabas,Shreveport, LA,71105,
Carrabas,Nottingham, MD,21236,
Carrabas,Bowie, MD,20716,
Carrabas,Ellicott City, MD,21043,
Carrabas,Germantown, MD,20874,
Carrabas,Hunt Valley, MD,21031,
Carrabas,Ocean City, MD,21842,
Carrabas,Pasadena, MD,21122,
Carrabas,Waldorf, MD,20602,
Carrabas,Canton, MI,48187,
Carrabas,Grandville, MI,49418,
Carrabas,Lansing, MI,48917,
Carrabas,Novi, MI,48377,
Carrabas,Portage, MI,49002,
Carrabas,Southgate, MI,48195,
Carrabas,Sterling Heights, MI,48313,
Carrabas,Troy, MI,48084,
Carrabas,Henderson, NV,89052,
Carrabas,Las Vegas, NV,89117,
Carrabas,Brick, NJ,8723,
Carrabas,East Brunswick, NJ,8816,
Carrabas,Dunellen, NJ,8812,
Carrabas,Maple Shade, NJ,8052,
Carrabas,Secaucus, NJ,7094,
Carrabas,Blackwood, NJ,8012,
Carrabas,Buffalo, NY,14228,
Carrabas,Central Islip, NY,11722,
Carrabas,Fayetteville, NY,13066,
Carrabas,Latham, NY,12110,
Carrabas,Rochester, NY,14623,
Carrabas,Smithtown, NY,11787,
Carrabas,Apex, NC,27502,
Carrabas,Arden, NC,28704,
Carrabas,Asheville, NC,28805,
Carrabas,Concord, NC,28027,
Carrabas,Durham, NC,27707,
Carrabas,Fayetteville, NC,28303,
Carrabas,Greensboro, NC,27407,
Carrabas,Hickory, NC,28602,
Carrabas,Huntersville, NC,28078,
Carrabas,Matthews, NC,28105,
Carrabas,Raleigh, NC,27616,
Carrabas,Wilmington, NC,28403,
Carrabas,Winston Salem, NC,27103,
Carrabas,Cleveland, OH,44144,
Carrabas,North Canton, OH,44720,
Carrabas,Cincinnati, OH,45255,
Carrabas,Columbus, OH,43240,
Carrabas,Hilliard, OH,43026,
Carrabas,Mason, OH,45040,
Carrabas,Maumee, OH,43537,
Carrabas,Dayton, OH,45459,
Carrabas,Westlake, OH,44145,
Carrabas,Allentown, PA,18103,
Carrabas,Bensalem, PA,19020,
Carrabas,Easton, PA,18045,
Carrabas,Lancaster, PA,17601,
Carrabas,Mechanicsburg, PA,17050,
Carrabas,Springfield, PA,19064,
Carrabas,West Chester, PA,19382,
Carrabas,Willow Grove, PA,19090,
Carrabas,Columbia, SC,29212,
Carrabas,Greenville, SC,29607,
Carrabas,Murrells Inlet, SC,29576,
Carrabas,Myrtle Beach, SC,29577,
Carrabas,North Myrtle Beach, SC,29582,
Carrabas,Charleston, SC,29406,
Carrabas,Chattanooga, TN,37421,
Carrabas,Collierville, TN,38017,
Carrabas,Franklin, TN,37067,
Carrabas,Hendersonville, TN,37075,
Carrabas,Johnson City, TN,37604,
Carrabas,Knoxville, TN,37922,
Carrabas,Memphis, TN,38117,
Carrabas,Murfreesboro, TN,37129,
Carrabas,Nashville, TN,37215,
Carrabas,Austin, TX,78759,
Carrabas,Beaumont, TX,77707,
Carrabas,Dallas, TX,75287,
Carrabas,Hurst, TX,76053,
Carrabas,Katy, TX,77494,
Carrabas,Plano, TX,75074,
Carrabas,San Antonio, TX,78230,
Carrabas,Sugar Land, TX,77478,
Carrabas,Webster, TX,77598,
Carrabas,Spring, TX,77380,
Carrabas,Centreville, VA,20120,
Carrabas,Chesapeake, VA,23320,
Carrabas,Fredericksburg, VA,22401,
Carrabas,Newport News, VA,23602,
Carrabas,Reston, VA,20190,
Carrabas,Roanoke, VA,24012,
Carrabas,Virginia Beach, VA,23452,
Carrabas,Williamsburg, VA,23185,
Carrabas,Winchester, VA,22602,
Carrabas,Woodbridge, VA,22192,
Carrabas,Brookfield, WI,53045,
Carrabas,Milwaukee, WI,53220,
Flemmings,Birmingham, AL,35243,
Flemmings,Chandler, AZ,85226,
Flemmings,Scottsdale, AZ,85255,
Flemmings,Peoria, AZ,85345,
Flemmings,Scottsdale, AZ,85250,
Flemmings,Tucson, AZ,85718,
Flemmings,El Segundo, CA,90245,
Flemmings,Fresno, CA,93710,
Flemmings,San Diego, CA,92122,
Flemmings,Los Angeles, CA,90015,
Flemmings,Newport Beach, CA,92660,
Flemmings,Palo Alto, CA,94304,
Flemmings,Pasadena, CA,91105,
Flemmings,Rancho Cucamonga, CA,91739,
Flemmings,San Diego, CA,92101,
Flemmings,Santa Clara, CA,95054,
Flemmings,Walnut Creek, CA,94596,
Flemmings,Woodland Hills, CA,91367,
Flemmings,Englewood, CO,80112,
Flemmings,West Hartford, CT,6107,
Flemmings,Miami, FL,33134,
Flemmings,Naples, FL,34108,
Flemmings,Orlando, FL,32819,
Flemmings,Winter Park, FL,32789,
Flemmings,Miramar Beach, FL,32550,
Flemmings,Sarasota, FL,34239,
Flemmings,Tampa, FL,33607,
Flemmings,Atlanta, GA,30346,
Flemmings,West Des Moines, IA,50266,
Flemmings,Baton Rouge, LA,70809,
Flemmings,Livonia, MI,48152,
Flemmings,Las Vegas, NV,89119,
Flemmings,Las Vegas, NV,89117,
Flemmings,Edgewater, NJ,7020,
Flemmings,Marlton, NJ,8053,
Flemmings,Charlotte, NC,28202,
Flemmings,Greensboro, NC,27410,
Flemmings,Raleigh, NC,27612,
Flemmings,Akron, OH,44333,
Flemmings,Dayton, OH,45440,
Flemmings,Tulsa, OK,74114,
Flemmings,Wayne, PA,19087,
Flemmings,Farragut, TN,37934,
Flemmings,Nashville, TN,37203,
Flemmings,Austin, TX,78758,
Flemmings,Houston, TX,77098,
Flemmings,Spring, TX,77380,
Flemmings,Houston, TX,77024,
Flemmings,San Antonio, TX,78209,
Flemmings,Salt Lake City, UT,84101,
Flemmings,Richmond, VA,23235,
Flemmings,Brookfield, WI,53005,
